[{"OBJECT_NAME":"ONEWEB-0012","OBJECT_ID":"2019-010A","EPOCH":"2025-12-11T05:40:50.386656","MEAN_MOTION":13.1659594,"ECCENTRICITY":0.00018872,"INCLINATION":87.9034,"RA_OF_ASC_NODE":266.2161,"ARG_OF_PERICENTER":86.6512,"MEAN_ANOMALY":273.4835,"EPHEMERIS_TYPE":0,"CLASSIFICATION_TYPE":"U","NORAD_CAT_ID":44057,"ELEMENT_SET_NO":999,"REV_AT_EPOCH":32683,"BSTAR":0.000147357,"MEAN_MOTION_DOT":6.9e-7,"MEAN_MOTION_DDOT":0},{"OBJECT_NAME":"ONEWEB-0010","OBJECT_ID":"2019-010B","EPOCH":"2025-12-11T06:17:18.307680","MEAN_MOTION":13.16596847,"ECCENTRICITY":0.00019071,"INCLINATION":87.9042,"RA_OF_ASC_NODE":266.2009,"ARG_OF_PERICENTER":64.529,"MEAN_ANOMALY":295.6038,"EPHEMERIS_TYPE":0,"CLASSIFICATION_TYPE":"U","NORAD_CAT_ID":44058,"ELEMENT_SET_NO":999,"REV_AT_EPOCH":32688,"BSTAR":0.00015275505,"MEAN_MOTION_DOT":7.1e-7,"MEAN_MOTION_DDOT":0},{"OBJECT_NAME":"ONEWEB-0008","OBJECT_ID":"2019-010C","EPOCH":"2025-12-11T06:53:47.687136","MEAN_MOTION":13.16595646,"ECCENTRICITY":0.00015487,"INCLINATION":87.9038,"RA_OF_ASC_NODE":266.1934,"ARG_OF_PERICENTER":74.2612,"MEAN_ANOMALY":285.869,"EPHEMERIS_TYPE":0,"CLASSIFICATION_TYPE":"U","NORAD_CAT_ID":44059,"ELEMENT_SET_NO":999,"REV_AT_EPOCH":32700,"BSTAR":0.00023549045,"MEAN_MOTION_DOT":1.03e-6,"MEAN_MOTION_DDOT":0},{"OBJECT_NAME":"ONEWEB-0007","OBJECT_ID":"2019-010D","EPOCH":"2025-12-11T05:58:57.269280","MEAN_MOTION":13.15547765,"ECCENTRICITY":0.00021544,"INCLINATION":87.899,"RA_OF_ASC_NODE":296.7288,"ARG_OF_PERICENTER":78.299,"MEAN_ANOMALY":281.8382,"EPHEMERIS_TYPE":0,"CLASSIFICATION_TYPE":"U","NORAD_CAT_ID":44060,"ELEMENT_SET_NO":999,"REV_AT_EPOCH":32666,"BSTAR":0.00041275625,"MEAN_MOTION_DOT":1.68e-6,"MEAN_MOTION_DDOT":0},{"OBJECT_NAME":"ONEWEB-0006","OBJECT_ID":"2019-010E","EPOCH":"2025-12-11T06:04:38.487072","MEAN_MOTION":13.15546791,"ECCENTRICITY":0.00019686,"INCLINATION":87.8998,"RA_OF_ASC_NODE":296.6746,"ARG_OF_PERICENTER":74.8039,"MEAN_ANOMALY":285.3309,"EPHEMERIS_TYPE":0,"CLASSIFICATION_TYPE":"U","NORAD_CAT_ID":44061,"ELEMENT_SET_NO":999,"REV_AT_EPOCH":32671,"BSTAR":0.00034725675,"MEAN_MOTION_DOT":1.44e-6,"MEAN_MOTION_DDOT":0},{"OBJECT_NAME":"ONEWEB-0011","OBJECT_ID":"2019-010F","EPOCH":"2025-12-11T07:08:33.148032","MEAN_MOTION":13.15549573,"ECCENTRICITY":0.00016307,"INCLINATION":87.8996,"RA_OF_ASC_NODE":296.6747,"ARG_OF_PERICENTER":75.5729,"MEAN_ANOMALY":284.5583,"EPHEMERIS_TYPE":0,"CLASSIFICATION_TYPE":"U","NORAD_CAT_ID":44062,"ELEMENT_SET_NO":999,"REV_AT_EPOCH":32671,"BSTAR":-5.6291858e-5,"MEAN_MOTION_DOT":-8.0e-8,"MEAN_MOTION_DDOT":0},{"OBJECT_NAME":"ONEWEB-0013","OBJECT_ID":"2020-008A","EPOCH":"2025-12-11T06:35:30.155712","MEAN_MOTION":13.09445064,"ECCENTRICITY":0.00024213,"INCLINATION":87.8512,"RA_OF_ASC_NODE":90.7788,"ARG_OF_PERICENTER":119.5357,"MEAN_ANOMALY":240.6011,"EPHEMERIS_TYPE":0,"CLASSIFICATION_TYPE":"U","NORAD_CAT_ID":45131,"ELEMENT_SET_NO":999,"REV_AT_EPOCH":28147,"BSTAR":0.0011475534,"MEAN_MOTION_DOT":4.08e-6,"MEAN_MOTION_DDOT":0},{"OBJECT_NAME":"ONEWEB-0017","OBJECT_ID":"2020-008B","EPOCH":"2025-12-11T07:30:42.817248","MEAN_MOTION":13.10373524,"ECCENTRICITY":0.000156,"INCLINATION":87.8807,"RA_OF_ASC_NODE":73.727,"ARG_OF_PERICENTER":93.6493,"MEAN_ANOMALY":266.4813,"EPHEMERIS_TYPE":0,"CLASSIFICATION_TYPE":"U","NORAD_CAT_ID":45132,"ELEMENT_SET_NO":999,"REV_AT_EPOCH":28334,"BSTAR":0.0015707326,"MEAN_MOTION_DOT":5.61e-6,"MEAN_MOTION_DDOT":0},{"OBJECT_NAME":"ONEWEB-0020","OBJECT_ID":"2020-008C","EPOCH":"2025-12-11T06:47:39.656832","MEAN_MOTION":13.103738,"ECCENTRICITY":0.00014852,"INCLINATION":87.8818,"RA_OF_ASC_NODE":73.7212,"ARG_OF_PERICENTER":107.7149,"MEAN_ANOMALY":252.414,"EPHEMERIS_TYPE":0,"CLASSIFICATION_TYPE":"U","NORAD_CAT_ID":45133,"ELEMENT_SET_NO":999,"REV_AT_EPOCH":28373,"BSTAR":-0.0016192657,"MEAN_MOTION_DOT":-5.53e-6,"MEAN_MOTION_DDOT":0},{"OBJECT_NAME":"ONEWEB-0021","OBJECT_ID":"2020-008D","EPOCH":"2025-12-11T07:09:11.140704","MEAN_MOTION":13.10376213,"ECCENTRICITY":0.00018128,"INCLINATION":87.881,"RA_OF_ASC_NODE":73.7472,"ARG_OF_PERICENTER":103.8526,"MEAN_ANOMALY":256.2803,"EPHEMERIS_TYPE":0,"CLASSIFICATION_TYPE":"U","NORAD_CAT_ID":45134,"ELEMENT_SET_NO":999,"REV_AT_EPOCH":28404,"BSTAR":-0.00012540967,"MEAN_MOTION_DOT":-3.1e-7,"MEAN_MOTION_DDOT":0},{"OBJECT_NAME":"ONEWEB-0023","OBJECT_ID":"2020-008F","EPOCH":"2025-12-11T07:24:44.536320","MEAN_MOTION":13.10374677,"ECCENTRICITY":0.0001764,"INCLINATION":87.8805,"RA_OF_ASC_NODE":73.7253,"ARG_OF_PERICENTER":108.4055,"MEAN_ANOMALY":251.7264,"EPHEMERIS_TYPE":0,"CLASSIFICATION_TYPE":"U","NORAD_CAT_ID":45136,"ELEMENT_SET_NO":999,"REV_AT_EPOCH":28347,"BSTAR":0.0013611462,"MEAN_MOTION_DOT":4.88e-6,"MEAN_MOTION_DDOT":0},{"OBJECT_NAME":"ONEWEB-0024","OBJECT_ID":"2020-008G","EPOCH":"2025-12-11T06:45:15.850944","MEAN_MOTION":13.10372672,"ECCENTRICITY":0.00016318,"INCLINATION":87.8833,"RA_OF_ASC_NODE":73.7015,"ARG_OF_PERICENTER":103.5039,"MEAN_ANOMALY":256.627,"EPHEMERIS_TYPE":0,"CLASSIFICATION_TYPE":"U","NORAD_CAT_ID":45137,"ELEMENT_SET_NO":999,"REV_AT_EPOCH":28363,"BSTAR":-0.0016225078,"MEAN_MOTION_DOT":-5.54e-6,"MEAN_MOTION_DDOT":0},{"OBJECT_NAME":"ONEWEB-0025","OBJECT_ID":"2020-008H","EPOCH":"2025-12-11T07:10:22.647936","MEAN_MOTION":13.10376896,"ECCENTRICITY":0.00019252,"INCLINATION":87.8817,"RA_OF_ASC_NODE":73.7009,"ARG_OF_PERICENTER":110.5304,"MEAN_ANOMALY":249.603,"EPHEMERIS_TYPE":0,"CLASSIFICATION_TYPE":"U","NORAD_CAT_ID":45138,"ELEMENT_SET_NO":999,"REV_AT_EPOCH":28396,"BSTAR":0.00011811639,"MEAN_MOTION_DOT":5.4e-7,"MEAN_MOTION_DDOT":0},{"OBJECT_NAME":"ONEWEB-0026","OBJECT_ID":"2020-008J","EPOCH":"2025-12-11T05:45:02.031840","MEAN_MOTION":13.11418522,"ECCENTRICITY":0.00015664,"INCLINATION":87.8866,"RA_OF_ASC_NODE":58.4917,"ARG_OF_PERICENTER":98.943,"MEAN_ANOMALY":261.1876,"EPHEMERIS_TYPE":0,"CLASSIFICATION_TYPE":"U","NORAD_CAT_ID":45139,"ELEMENT_SET_NO":999,"REV_AT_EPOCH":28647,"BSTAR":-0.0013089238,"MEAN_MOTION_DOT":-4.51e-6,"MEAN_MOTION_DDOT":0},{"OBJECT_NAME":"ONEWEB-0028","OBJECT_ID":"2020-008K","EPOCH":"2025-12-11T06:32:39.358464","MEAN_MOTION":13.11419276,"ECCENTRICITY":0.0002269,"INCLINATION":87.8854,"RA_OF_ASC_NODE":58.4991,"ARG_OF_PERICENTER":113.4253,"MEAN_ANOMALY":246.7114,"EPHEMERIS_TYPE":0,"CLASSIFICATION_TYPE":"U","NORAD_CAT_ID":45140,"ELEMENT_SET_NO":999,"REV_AT_EPOCH":28399,"BSTAR":0.0015552629,"MEAN_MOTION_DOT":5.64e-6,"MEAN_MOTION_DDOT":0},{"OBJECT_NAME":"ONEWEB-0032","OBJECT_ID":"2020-008L","EPOCH":"2025-12-11T05:43:09.064704","MEAN_MOTION":13.10373845,"ECCENTRICITY":0.00018356,"INCLINATION":87.8812,"RA_OF_ASC_NODE":73.7421,"ARG_OF_PERICENTER":112.7066,"MEAN_ANOMALY":247.4256,"EPHEMERIS_TYPE":0,"CLASSIFICATION_TYPE":"U","NORAD_CAT_ID":45141,"ELEMENT_SET_NO":999,"REV_AT_EPOCH":28368,"BSTAR":0.0016787231,"MEAN_MOTION_DOT":5.99e-6,"MEAN_MOTION_DDOT":0},{"OBJECT_NAME":"ONEWEB-0033","OBJECT_ID":"2020-008M","EPOCH":"2025-12-11T06:57:13.114368","MEAN_MOTION":13.10375661,"ECCENTRICITY":0.00014709,"INCLINATION":87.8818,"RA_OF_ASC_NODE":73.7456,"ARG_OF_PERICENTER":88.4354,"MEAN_ANOMALY":271.6942,"EPHEMERIS_TYPE":0,"CLASSIFICATION_TYPE":"U","NORAD_CAT_ID":45142,"ELEMENT_SET_NO":999,"REV_AT_EPOCH":28360,"BSTAR":-0.0014591101,"MEAN_MOTION_DOT":-4.97e-6,"MEAN_MOTION_DDOT":0}]
