ONEWEB-0012             
1 44057U 19010A   25345.23669429  .00000069  00000+0  14736-3 0  9999
2 44057  87.9034 266.2161 0001887  86.6512 273.4835 13.16595940326836
ONEWEB-0010             
1 44058U 19010B   25345.26201745  .00000071  00000+0  15276-3 0  9999
2 44058  87.9042 266.2009 0001907  64.5290 295.6038 13.16596847326881
ONEWEB-0008             
1 44059U 19010C   25345.28735749  .00000103  00000+0  23549-3 0  9996
2 44059  87.9038 266.1934 0001548  74.2612 285.8690 13.16595646327006
ONEWEB-0007             
1 44060U 19010D   25345.24927395  .00000168  00000+0  41276-3 0  9992
2 44060  87.8990 296.7288 0002154  78.2990 281.8382 13.15547765326665
ONEWEB-0006             
1 44061U 19010E   25345.25322323  .00000144  00000+0  34726-3 0  9990
2 44061  87.8998 296.6746 0001968  74.8039 285.3309 13.15546791326712
ONEWEB-0011             
1 44062U 19010F   25345.29760588 -.00000008  00000+0 -56292-4 0  9998
2 44062  87.8996 296.6747 0001630  75.5729 284.5583 13.15549573326718
ONEWEB-0013             
1 45131U 20008A   25345.27465458  .00000408  00000+0  11476-2 0  9996
2 45131  87.8512  90.7788 0002421 119.5357 240.6011 13.09445064281478
ONEWEB-0017             
1 45132U 20008B   25345.31299557  .00000561  00000+0  15707-2 0  9998
2 45132  87.8807  73.7270 0001560  93.6493 266.4813 13.10373524283346
ONEWEB-0020             
1 45133U 20008C   25345.28309788 -.00000553  00000+0 -16193-2 0  9996
2 45133  87.8818  73.7212 0001485 107.7149 252.4140 13.10373800283734
ONEWEB-0021             
1 45134U 20008D   25345.29804561 -.00000031  00000+0 -12541-3 0  9992
2 45134  87.8810  73.7472 0001812 103.8526 256.2803 13.10376213284049
ONEWEB-0023             
1 45136U 20008F   25345.30884880  .00000488  00000+0  13611-2 0  9990
2 45136  87.8805  73.7253 0001764 108.4055 251.7264 13.10374677283475
ONEWEB-0024             
1 45137U 20008G   25345.28143346 -.00000554  00000+0 -16225-2 0  9993
2 45137  87.8833  73.7015 0001631 103.5039 256.6270 13.10372672283636
ONEWEB-0025             
1 45138U 20008H   25345.29887324  .00000054  00000+0  11812-3 0  9997
2 45138  87.8817  73.7009 0001925 110.5304 249.6030 13.10376896283965
ONEWEB-0026             
1 45139U 20008J   25345.23960685 -.00000451  00000+0 -13089-2 0  9994
2 45139  87.8866  58.4917 0001566  98.9430 261.1876 13.11418522286478
ONEWEB-0028             
1 45140U 20008K   25345.27267776  .00000564  00000+0  15553-2 0  9992
2 45140  87.8854  58.4991 0002269 113.4253 246.7114 13.11419276283991
ONEWEB-0032             
1 45141U 20008L   25345.23829936  .00000599  00000+0  16787-2 0  9999
2 45141  87.8812  73.7421 0001835 112.7066 247.4256 13.10373845283687
ONEWEB-0033             
1 45142U 20008M   25345.28973512 -.00000497  00000+0 -14591-2 0  9995
2 45142  87.8818  73.7456 0001470  88.4354 271.6942 13.10375661283607
